NORAD_CAT_ID,OBJECT_NAME,OBJECT_TYPE,EPOCH,MEAN_MOTION,ECCENTRICITY,INCLINATION,RA_OF_ASC_NODE,ARG_OF_PERICENTER,MEAN_ANOMALY,BSTAR,MEAN_MOTION_DOT,MEAN_MOTION_DDOT,TLE_LINE0,TLE_LINE1,TLE_LINE2,SEMIMAJOR_AXIS,PERIOD,APOGEE,PERIGEE,DECAYED
53400.0,STARLINK-4520,PAYLOAD,2023-09-12 09:22:40,15.08855411,0.0001627,53.2167,246.1217,88.9726,271.1453,7.1611e-05,8.52e-06,0.0,0 STARLINK-4520,1 53400U 22097N   23255.39075159  .00000852  00000-0  71611-4 0  9993,2 53400  53.2167 246.1217 0001627  88.9726 271.1453 15.08855411 61241,6917.833,95.437,540.824,538.573,0.0
53400.0,STARLINK-4520,PAYLOAD,2023-09-13 02:51:56,15.08834841,0.0001598,53.2171,242.8515,90.5126,269.6049,7.5132e-05,9.08e-06,0.0,0 STARLINK-4520,1 53400U 22097N   23256.11940430  .00000908  00000-0  75132-4 0  9991,2 53400  53.2171 242.8515 0001598  90.5126 269.6049 15.08834841 60864,6917.896,95.438,540.867,538.656,0.0
53400.0,STARLINK-4520,PAYLOAD,2023-09-13 06:02:42,15.08844103,0.0001492,53.2166,242.2567,92.2579,267.8584,0.00012299,1.67e-05,0.0,0 STARLINK-4520,1 53400U 22097N   23256.25187790  .00001670  00000-0  12299-3 0  9999,2 53400  53.2166 242.2567 0001492  92.2579 267.8584 15.08844103 60881,6917.868,95.437,540.765,538.701,0.0
53400.0,STARLINK-4520,PAYLOAD,2023-09-13 15:35:01,15.08838807,0.0001471,53.2165,240.4731,91.2153,268.9008,3.709e-05,3.02e-06,0.0,0 STARLINK-4520,1 53400U 22097N   23256.64932316  .00000302  00000-0  37090-4 0  9992,2 53400  53.2165 240.4731 0001471  91.2153 268.9008 15.08838807 60941,6917.884,95.438,540.767,538.731,0.0
53400.0,STARLINK-4520,PAYLOAD,2023-09-14 02:42:44,15.08830697,0.0001691,53.2187,238.3955,98.8255,261.2929,-3.2761e-05,-8.09e-06,0.0,0 STARLINK-4520,1 53400U 22097N   23257.11301255 -.00000809  00000-0 -32761-4 0  9991,2 53400  53.2187 238.3955 0001691  98.8255 261.2929 15.08830697 61015,6917.909,95.438,540.944,538.604,0.0
53400.0,STARLINK-4520,PAYLOAD,2023-09-14 10:39:39,15.08835769,0.0001546,53.2172,236.9043,94.7804,265.3365,-6.679e-05,-1.351e-05,0.0,0 STARLINK-4520,1 53400U 22097N   23257.44421073 -.00001351  00000-0 -66790-4 0  9990,2 53400  53.2172 236.9043 0001546  94.7804 265.3365 15.08835769 61558,6917.893,95.438,540.828,538.689,0.0
53400.0,STARLINK-4520,PAYLOAD,2023-09-14 15:25:49,15.08835489,0.0001627,53.2178,236.0115,92.111,268.0068,-5.549e-05,-1.171e-05,0.0,0 STARLINK-4520,1 53400U 22097N   23257.64293195 -.00001171  00000-0 -55490-4 0  9999,2 53400  53.2178 236.0115 0001627  92.1110 268.0068 15.08835489 61589,6917.894,95.438,540.885,538.634,0.0
53400.0,STARLINK-4520,PAYLOAD,2023-09-15 04:08:54,15.08842024,0.0001518,53.2174,233.632,92.4604,267.6561,4.2069e-05,3.82e-06,0.0,0 STARLINK-4520,1 53400U 22097N   23258.17284800  .00000382  00000-0  42069-4 0  9990,2 53400  53.2174 233.6320 0001518  92.4604 267.6561 15.08842024 61177,6917.874,95.437,540.789,538.689,0.0
53400.0,STARLINK-4520,PAYLOAD,2023-09-15 08:55:03,15.08848994,0.0001468,53.2175,232.7407,90.0523,270.0637,6.055e-05,6.76e-06,0.0,0 STARLINK-4520,1 53400U 22097N   23258.37156352  .00000676  00000-0  60550-4 0  9993,2 53400  53.2175 232.7407 0001468  90.0523 270.0637 15.08848994 61693,6917.853,95.437,540.733,538.702,0.0
53400.0,STARLINK-4520,PAYLOAD,2023-09-15 21:38:09,15.0882932,0.0001618,53.2174,230.3611,88.2163,271.9015,0.00029063,4.339e-05,0.0,0 STARLINK-4520,1 53400U 22097N   23258.90149368  .00004339  00000-0  29063-3 0  9994,2 53400  53.2174 230.3611 0001618  88.2163 271.9015 15.08829320 61286,6917.913,95.438,540.897,538.659,0.0
53400.0,STARLINK-4520,PAYLOAD,2023-09-16 10:21:13,15.08844292,0.0001547,53.2174,227.9823,86.4736,273.6433,0.00024727,3.65e-05,0.0,0 STARLINK-4520,1 53400U 22097N   23259.43140787  .00003650  00000-0  24727-3 0  9996,2 53400  53.2174 227.9823 0001547  86.4736 273.6433 15.08844292 61851,6917.867,95.437,540.802,538.662,0.0
53400.0,STARLINK-4520,PAYLOAD,2023-09-17 02:15:05,15.08838371,0.0001522,53.2164,225.0082,93.0578,267.0589,3.1228e-05,2.09e-06,0.0,0 STARLINK-4520,1 53400U 22097N   23260.09381211  .00000209  00000-0  31228-4 0  9991,2 53400  53.2164 225.0082 0001522  93.0578 267.0589 15.08838371 61464,6917.885,95.438,540.803,538.697,0.0
53400.0,STARLINK-4520,PAYLOAD,2023-09-17 05:25:51,15.08850305,0.0001714,53.2172,224.4131,98.3049,261.8137,8.5779e-05,1.078e-05,0.0,0 STARLINK-4520,1 53400U 22097N   23260.22628766  .00001078  00000-0  85779-4 0  9990,2 53400  53.2172 224.4131 0001714  98.3049 261.8137 15.08850305 61489,6917.849,95.437,540.9,538.528,0.0
53400.0,STARLINK-4520,PAYLOAD,2023-09-17 10:12:00,15.08849021,0.000152,53.2166,223.5199,96.6155,263.501,0.00015864,2.238e-05,0.0,0 STARLINK-4520,1 53400U 22097N   23260.42500576  .00002238  00000-0  15864-3 0  9996,2 53400  53.2166 223.5199 0001520  96.6155 263.5010 15.08849021 62001,6917.853,95.437,540.769,538.666,0.0
53400.0,STARLINK-4520,PAYLOAD,2023-09-18 02:05:52,15.08844455,0.00019,53.2166,220.5502,76.1588,283.9616,0.00012659,1.727e-05,0.0,0 STARLINK-4520,1 53400U 22097N   23261.08741130  .00001727  00000-0  12659-3 0  9993,2 53400  53.2166 220.5502 0001900  76.1588 283.9616 15.08844455 61611,6917.867,95.437,541.046,538.417,0.0
53400.0,STARLINK-4520,PAYLOAD,2023-09-18 06:52:01,15.0884982,0.0001538,53.216,219.6562,96.3401,263.7766,0.00014512,2.023e-05,0.0,0 STARLINK-4520,1 53400U 22097N   23261.28612582  .00002023  00000-0  14512-3 0  9993,2 53400  53.2160 219.6562 0001538  96.3401 263.7766 15.08849820 62136,6917.85,95.437,540.779,538.651,0.0
53400.0,STARLINK-4520,PAYLOAD,2023-09-19 06:42:47,15.08858409,0.0001784,53.2168,215.1928,106.6279,253.4909,0.00025685,3.804e-05,0.0,0 STARLINK-4520,1 53400U 22097N   23262.27971817  .00003804  00000-0  25685-3 0  9993,2 53400  53.2168 215.1928 0001784 106.6279 253.4909 15.08858409 61791,6917.824,95.436,540.923,538.455,0.0
53400.0,STARLINK-4520,PAYLOAD,2023-09-20 03:22:49,15.08839815,0.0001585,53.2168,211.33,99.4978,260.6193,1.1991e-06,-2.69e-06,0.0,0 STARLINK-4520,1 53400U 22097N   23263.14084799 -.00000269  00000-0  11991-5 0  9994,2 53400  53.2168 211.3300 0001585  99.4978 260.6193 15.08839815 61927,6917.881,95.438,540.842,538.649,0.0
53400.0,STARLINK-4520,PAYLOAD,2023-09-20 06:33:35,15.0884193,0.0001522,53.2163,210.7345,98.6108,261.5056,3.2088e-05,2.23e-06,0.0,0 STARLINK-4520,1 53400U 22097N   23263.27332677  .00000223  00000-0  32088-4 0  9997,2 53400  53.2163 210.7345 0001522  98.6108 261.5056 15.08841930 62437,6917.874,95.437,540.792,538.687,0.0
53400.0,STARLINK-4520,PAYLOAD,2023-09-20 20:52:04,15.08828762,0.0001481,53.216,208.0537,113.6563,246.4584,-0.0001884,-3.284e-05,0.0,0 STARLINK-4520,1 53400U 22097N   23263.86949505 -.00003284  00000-0 -18840-3 0  9997,2 53400  53.2160 208.0537 0001481 113.6563 246.4584 15.08828762 62520,6917.915,95.438,540.804,538.755,0.0
53400.0,STARLINK-4520,PAYLOAD,2023-09-21 01:38:13,15.08830216,0.0001452,53.2161,207.1619,110.3862,249.7286,-0.00013744,-2.474e-05,0.0,0 STARLINK-4520,1 53400U 22097N   23264.06821580 -.00002474  00000-0 -13744-3 0  9990,2 53400  53.2161 207.1619 0001452 110.3862 249.7286 15.08830216 62067,6917.91,95.438,540.78,538.771,0.0
53400.0,STARLINK-4520,PAYLOAD,2023-09-21 06:24:23,15.0883799,0.0001206,53.216,206.275,92.3162,267.7969,-1.8315e-05,-5.79e-06,0.0,0 STARLINK-4520,1 53400U 22097N   23264.26693379 -.00000579  00000-0 -18315-4 0  9999,2 53400  53.2160 206.2750 0001206  92.3162 267.7969 15.08837990 62582,6917.887,95.438,540.586,538.917,0.0
53400.0,STARLINK-4520,PAYLOAD,2023-09-21 20:42:51,15.08839647,0.0001225,53.2168,203.6002,91.8146,268.2986,0.0002904,4.337e-05,0.0,0 STARLINK-4520,1 53400U 22097N   23264.86309924  .00004337  00000-0  29040-3 0  9995,2 53400  53.2168 203.6002 0001225  91.8146 268.2986 15.08839647 62674,6917.881,95.438,540.594,538.899,0.0
53400.0,STARLINK-4520,PAYLOAD,2023-09-22 04:39:47,15.08858948,0.0001236,53.2174,202.1143,92.796,267.3174,0.00075104,0.00011691,0.0,0 STARLINK-4520,1 53400U 22097N   23265.19429439  .00011691  00000-0  75104-3 0  9999,2 53400  53.2174 202.1143 0001236  92.7960 267.3174 15.08858948 62233,6917.822,95.436,540.543,538.832,0.0
53400.0,STARLINK-4520,PAYLOAD,2023-09-22 20:33:38,15.08854078,0.0001172,53.2167,199.1404,92.454,267.6586,0.00034956,5.282e-05,0.0,0 STARLINK-4520,1 53400U 22097N   23265.85669350  .00005282  00000-0  34956-3 0  9999,2 53400  53.2167 199.1404 0001172  92.4540 267.6586 15.08854078 62825,6917.837,95.437,540.513,538.892,0.0
53400.0,STARLINK-4520,PAYLOAD,2023-09-23 02:55:10,15.08854946,0.0001149,53.2165,197.9506,85.2758,274.8365,0.00033747,5.089e-05,0.0,0 STARLINK-4520,1 53400U 22097N   23266.12165200  .00005089  00000-0  33747-3 0  9997,2 53400  53.2165 197.9506 0001149  85.2758 274.8365 15.08854946 62376,6917.835,95.437,540.495,538.905,0.0
53400.0,STARLINK-4520,PAYLOAD,2023-09-23 06:05:56,15.08856981,0.0001109,53.216,197.355,85.2728,274.8391,0.00035363,5.347e-05,0.0,0 STARLINK-4520,1 53400U 22097N   23266.25412997  .00005347  00000-0  35363-3 0  9992,2 53400  53.2160 197.3550 0001109  85.2728 274.8391 15.08856981 62883,6917.828,95.436,540.461,538.926,0.0
53400.0,STARLINK-4520,PAYLOAD,2023-09-24 02:45:58,15.08841415,0.0001422,53.2154,193.4896,76.0551,284.06,0.00030349,4.546e-05,0.0,0 STARLINK-4520,1 53400U 22097N   23267.11525787  .00004546  00000-0  30349-3 0  9999,2 53400  53.2154 193.4896 0001422  76.0551 284.0600 15.08841415 62529,6917.876,95.437,540.725,538.757,0.0
53400.0,STARLINK-4520,PAYLOAD,2023-09-24 18:39:50,15.08838287,0.0001683,53.2152,190.517,68.6867,291.4305,0.00027571,4.102e-05,0.0,0 STARLINK-4520,1 53400U 22097N   23267.77766237  .00004102  00000-0  27571-3 0  9999,2 53400  53.2152 190.5170 0001683  68.6867 291.4305 15.08838287 62624,6917.886,95.438,540.915,538.586,0.0
53400.0,STARLINK-4520,PAYLOAD,2023-09-25 12:09:03,15.08857364,0.0001434,53.2158,187.2448,89.8476,270.2681,0.00093671,0.00014658,0.0,0 STARLINK-4520,1 53400U 22097N   23268.50629603  .00014658  00000-0  93671-3 0  9997,2 53400  53.2158 187.2448 0001434  89.8476 270.2681 15.08857364 63222,6917.827,95.436,540.684,538.7,0.0
